[{"OBJECT_NAME":"STARLINK-32839","OBJECT_ID":"2025-037A","EPOCH":"2026-03-09T23:33:53.501472","MEAN_MOTION":14.98327327,"ECCENTRICITY":0.0002684,"INCLINATION":70.0024,"RA_OF_ASC_NODE":353.8071,"ARG_OF_PERICENTER":269.6025,"MEAN_ANOMALY":90.4826,"EPHEMERIS_TYPE":0,"CLASSIFICATION_TYPE":"U","NORAD_CAT_ID":63077,"ELEMENT_SET_NO":999,"REV_AT_EPOCH":5863,"BSTAR":0.0005179283,"MEAN_MOTION_DOT":6.092e-5,"MEAN_MOTION_DDOT":0},{"OBJECT_NAME":"KUIPER-00050","OBJECT_ID":"2025-134L","EPOCH":"2026-03-09T16:37:17.406912","MEAN_MOTION":14.97208204,"ECCENTRICITY":0.00043267,"INCLINATION":51.8888,"RA_OF_ASC_NODE":211.9413,"ARG_OF_PERICENTER":323.7107,"MEAN_ANOMALY":36.3569,"EPHEMERIS_TYPE":0,"CLASSIFICATION_TYPE":"U","NORAD_CAT_ID":64510,"ELEMENT_SET_NO":999,"REV_AT_EPOCH":4037,"BSTAR":0.00054272515,"MEAN_MOTION_DOT":6.094e-5,"MEAN_MOTION_DDOT":0}]
